{"type":"FeatureCollection","features":[{"type":"Feature","properties":{},"geometry":{"type":"Polygon","coordinates":[[[9.07864,45.826567],[8.726033,45.644661],[8.503738,45.735688],[8.043816,45.505156],[7.57623,45.402991],[7.530237,45.07915],[7.284946,44.88396],[7.269615,44.780674],[7.484245,44.649944],[7.484245,44.354722],[8.304439,44.338277],[8.618718,44.704451],[9.07864,44.954522],[9.500234,44.96537],[10.075136,44.840494],[10.450739,44.475178],[11.270932,44.486116],[12.121787,44.019432],[12.497389,44.063513],[12.075795,44.600844],[12.259763,44.862231],[12.474393,44.96537],[12.060464,45.300641],[12.267429,45.532011],[12.597039,45.510528],[13.493886,45.783819],[13.417232,46.103631],[13.064626,46.241643],[11.347586,45.741038],[11.401243,45.505156],[10.925991,45.591046],[10.703696,45.440653],[9.400585,45.869283],[9.07864,45.826567]]]}}]}